OBJECT_NAME,OBJECT_ID,EPOCH,MEAN_MOTION,ECCENTRICITY,INCLINATION,RA_OF_ASC_NODE,ARG_OF_PERICENTER,MEAN_ANOMALY,EPHEMERIS_TYPE,CLASSIFICATION_TYPE,NORAD_CAT_ID,ELEMENT_SET_NO,REV_AT_EPOCH,BSTAR,MEAN_MOTION_DOT,MEAN_MOTION_DDOT
UM5-RIBAT,2024-149CQ,2026-06-06T22:33:01.601568,15.01018809,.00038693,97.6636,235.8783,77.9802,282.1855,0,U,60554,999,9865,.28484287E-3,.3579E-4,0
UM5-EOSAT,2024-149CR,2026-06-06T04:13:19.070688,15.01443983,.00084762,97.6672,236.0452,147.1668,213.0084,0,U,60555,999,9856,.39652157E-3,.5065E-4,0
LASARSAT,2024-247Q,2026-06-03T22:10:16.072896,15.45494859,.00080478,44.9754,336.7002,258.6055,101.3931,0,U,62391,999,8126,.75515127E-3,.36882E-3,0
CROCUBE,2024-247T,2026-06-06T20:13:00.782688,15.47515230,.00081442,44.9730,317.8161,277.6429,82.3536,0,U,62394,999,8174,.84876346E-3,.44564E-3,0
TEVEL2-4,2025-052D,2026-06-06T16:23:23.360928,15.34240261,.00042909,97.3916,54.0604,122.6976,237.4682,0,U,63213,999,6850,.66366658E-3,.21961E-3,0
TEVEL2-5,2025-052E,2026-06-06T23:06:56.926368,15.34083480,.00043019,97.3910,54.2903,124.6483,235.5166,0,U,63214,999,6854,.6075362E-3,.19993E-3,0
TEVEL2-6,2025-052F,2026-06-06T15:34:42.332448,15.34033267,.00043496,97.3912,53.9608,124.5503,235.6151,0,U,63215,999,6849,.66393419E-3,.21827E-3,0
TEVEL2-1,2025-052H,2026-06-06T16:11:18.216960,15.33515217,.00040989,97.3884,53.6229,133.6962,226.4621,0,U,63217,999,6848,.66584155E-3,.21533E-3,0
TEVEL2-3,2025-052J,2026-06-06T23:53:55.108608,15.33580107,.00041915,97.3886,53.9649,134.9154,225.2429,0,U,63218,999,6853,.61864532E-3,.20039E-3,0
TEVEL2-2,2025-052K,2026-06-06T16:11:50.196192,15.33523314,.00040826,97.3886,53.6255,135.2469,224.9104,0,U,63219,999,6848,.67116981E-3,.21712E-3,0
TEVEL2-9,2025-052AD,2026-06-07T00:44:23.963424,15.31586592,.00067769,97.3948,53.3781,159.6599,200.4913,0,U,63237,999,6847,.60940957E-3,.18547E-3,0
TEVEL2-7,2025-052AE,2026-06-06T16:15:56.634048,15.31287238,.00068216,97.3947,52.9464,161.8980,198.2506,0,U,63238,999,6841,.62791221E-3,.18936E-3,0
TEVEL2-8,2025-052AF,2026-06-06T22:44:04.082208,15.31279779,.00068362,97.3945,53.1926,161.4013,198.7479,0,U,63239,999,6845,.611007E-3,.18419E-3,0
FORESAIL-1 PRIME,2025-276DS,2026-06-06T15:38:40.926912,15.18605818,.0003661,97.4198,231.1163,125.3136,234.8442,0,U,66778,999,2880,.26555905E-3,.5428E-4,0
